{
  "tleItemMap": {
    "00001": {
      "id": "00001",
      "name": "TEST",
      "epoch": 25073.92018704,
      "line1": "1 14129U 83058B   25073.92018704  .00000020  00000+0  00000+0 0  9999",
      "line2": "2 14129  27.0142 296.3641 6048443 349.0057   2.2900  2.05871245286039",
      "isInLatestTLE": true
    }
  }
}
